PROBA-1                 
1 26958U 01049B   22005.44033920  .00001075  00000+0  96548-4 0  9996
2 26958  97.7988 325.6884 0072878 166.6069 193.7120 14.95903982100107
BIRD 2                  
1 26959U 01049C   22005.13389808  .00003803  00000+0  95704-4 0  9996
2 26959  97.7750  86.3811 0006192 230.6087 129.4610 15.40608053121772
CUTE-1 (CO-55)          
1 27844U 03031E   22004.94890048  .00000084  00000+0  57554-4 0  9993
2 27844  98.6800  15.1028 0009332 210.3274 149.7365 14.22366223960620
CUBESAT XI-IV (CO-57)   
1 27848U 03031J   22005.28392643  .00000056  00000+0  45157-4 0  9998
2 27848  98.6850  15.9797 0009006 224.0123 136.0338 14.21935422960523
GENESIS 1               
1 29252U 06029A   22004.89301544  .00001163  00000+0  62511-4 0  9998
2 29252  64.5200 247.5983 0059036 286.6818  72.7830 15.19294885854117
FALCONSAT-3             
1 30776U 07006E   22004.83390847  .00008147  00000+0  17433-3 0  9996
2 30776  35.4322 243.3855 0004001 304.9673  55.0680 15.44082936824214
GENESIS 2               
1 31789U 07028A   22005.18120390  .00001506  00000+0  82399-4 0  9994
2 31789  64.4963 289.4292 0029118 348.6613  11.3850 15.18302915801169
APRIZESAT 4             
1 35684U 09041D   22005.45104227  .00000118  00000+0  23204-4 0  9998
2 35684  98.3138  13.5053 0047579 153.1157 207.2534 14.79454964671013
APRIZESAT 3             
1 35686U 09041F   22005.13433529  .00000201  00000+0  27821-4 0  9997
2 35686  98.1196  88.1729 0072494   0.9740 359.1604 14.87631827674377
PROBA-2                 
1 36037U 09059B   22005.10989848  .00000031  00000+0  18292-4 0  9997
2 36037  98.2194 194.7991 0012238 251.0590 108.9280 14.53185064645620
APRIZESAT 5             
1 37792U 11044E   22005.42708119  .00000151  00000+0  29925-4 0  9996
2 37792  98.3482 235.8225 0058312 162.3634 197.9617 14.75576817559106
APRIZESAT 6             
1 37793U 11044F   22004.56766597  .00000171  00000+0  35275-4 0  9992
2 37793  98.4146 210.9321 0046098 212.4512 206.1638 14.72621829557741
TET-1                   
1 38710U 12039D   22005.15946341  .00011060  00000+0  14505-3 0  9991
2 38710  97.5305  75.3030 0000305 327.2877  32.8360 15.58743190531893
PROBA-V                 
1 39159U 13021A   22005.38012796 -.00000015  00000+0  11583-4 0  9997
2 39159  98.3814  49.3106 0003837 192.3327 167.7759 14.23014569450133
STPSAT-3                
1 39380U 13064A   22004.10160885  .00012021  00000+0  29508-3 0  9996
2 39380  40.4996 305.5212 0005240 215.7619 144.2846 15.40424070453926
APRIZESAT 7             
1 39416U 13066A   22005.48118066  .00000208  00000+0  30555-4 0  9993
2 39416  97.5551 353.9753 0041120 172.9771 187.2029 14.84188114439896
APRIZESAT 8             
1 39425U 13066K   22004.93288382  .00000157  00000+0  26215-4 0  9992
2 39425  97.6056 344.4003 0050840 215.0381 144.7485 14.81379179438753
BUGSAT-1 (TITA)         
1 40014U 14033E   22005.50352820  .00000461  00000+0  46508-4 0  9991
2 40014  98.1314 357.4546 0030242 214.9283 144.9956 14.96025070411773
SAUDISAT 4              
1 40016U 14033G   22005.47361436  .00000108  00000+0  22866-4 0  9991
2 40016  97.6472 209.1997 0047139 311.1161  48.5984 14.75419316406383
APRIZESAT 9             
1 40018U 14033J   22005.46756412  .00000085  00000+0  21460-4 0  9997
2 40018  97.7003 184.9616 0071706  18.0058 342.3665 14.70115561404838
APRIZESAT 10            
1 40019U 14033K   22005.43517966  .00000093  00000+0  23778-4 0  9997
2 40019  97.7467 174.3129 0085335  57.2750 303.6646 14.67166257404071
TDS 1                   
1 40076U 14037H   22005.48249455  .00000659  00000+0  84230-4 0  9992
2 40076  98.4127 229.4482 0005861 232.3047 127.7635 14.85035236405593
TIANTUO 2               
1 40144U 14053B   22005.42002494  .00002450  00000+0  71297-4 0  9990
2 40144  97.2104  88.6823 0013178  71.3303 352.5507 15.36296058410052
TECHNOSAT               
1 42829U 17042E   22005.40919254  .00000385  00000+0  43597-4 0  9999
2 42829  97.4398 228.8833 0013792 186.3813 173.7233 14.91462030243783
FLYING LAPTOP           
1 42831U 17042G   22004.91232063  .00001180  00000+0  12307-3 0  9991
2 42831  97.4414 228.6918 0013427 187.7101 172.3925 14.91458944243712
HAWK-A                  
1 43765U 18099H   22005.42232143  .00000579  00000+0  55832-4 0  9999
2 43765  97.6419  77.4335 0016556  97.6064 262.7039 14.96528867168759
HAWK-B                  
1 43794U 18099AN  22005.42269289  .00000570  00000+0  55007-4 0  9997
2 43794  97.6419  77.4339 0016621  97.6998 262.6112 14.96527523168742
HAWK-C                  
1 43799U 18099AT  22005.42249648  .00000571  00000+0  55131-4 0  9998
2 43799  97.6417  77.3465 0016488  97.3954 262.9142 14.96529631168742
SALSAT                  
1 46495U 20068K   22004.90610334  .00001853  00000+0  13908-3 0  9998
2 46495  97.7108 306.4289 0017993 109.3439 250.9733 15.03767920 69602
